{"type": "FeatureCollection", "features": [ {"type": "Feature", "properties": {"norad_id": 31805, "name": "FENGYUN 1C DEB", "group": "fengyun-1c-debris", "lat": 2.274235383704006, "lon": -18.649768904595234, "alt_km": 1055.0387301457895, "timestamp": "2025-12-24T09:46:31.288273+00:00", "meta": {"OBJECT_NAME": "FENGYUN 1C DEB", "OBJECT_ID": "1999-025CGT", "EPOCH": "2025-12-22T18:23:36.095136", "MEAN_MOTION": 14.02886852, "ECCENTRICITY": 0.04473511, "INCLINATION": 98.3624, "RA_OF_ASC_NODE": 340.1713, "ARG_OF_PERICENTER": 130.5127, "MEAN_ANOMALY": 233.5923, "EPHEMERIS_TYPE": 0, "CLASSIFICATION_TYPE": "U", "NORAD_CAT_ID": 31805, "ELEMENT_SET_NO": 999, "REV_AT_EPOCH": 62504, "BSTAR": 0.0013975945, "MEAN_MOTION_DOT": 5.257e-05, "MEAN_MOTION_DDOT": 0}, "tle": {"line1": "1 31805U 99025CGT 25356.76638999  .00005257  00000+0  13976-2 0  9996", "line2": "2 31805  98.3624 340.1713 0447351 130.5127 233.5923 14.02886852625041"}}, "geometry": {"type": "Point", "coordinates": [-18.649768904595234, 2.274235383704006]}}, {"type": "Feature", "properties": {"norad_id": 31807, "name": "FENGYUN 1C DEB", "group": "fengyun-1c-debris", "lat": -48.98697670411066, "lon": -60.29653990849259, "alt_km": 740.4886015556494, "timestamp": "2025-12-24T09:46:31.288284+00:00", "meta": {"OBJECT_NAME": "FENGYUN 1C DEB", "OBJECT_ID": "1999-025CGV", "EPOCH": "2025-12-23T02:57:48.388608", "MEAN_MOTION": 14.52113828, "ECCENTRICITY": 0.01056707, "INCLINATION": 99.0777, "RA_OF_ASC_NODE": 128.9097, "ARG_OF_PERICENTER": 131.5185, "MEAN_ANOMALY": 229.5134, "EPHEMERIS_TYPE": 0, "CLASSIFICATION_TYPE": "U", "NORAD_CAT_ID": 31807, "ELEMENT_SET_NO": 999, "REV_AT_EPOCH": 65456, "BSTAR": 0.00086617726, "MEAN_MOTION_DOT": 3.718e-05, "MEAN_MOTION_DDOT": 0}, "tle": {"line1": "1 31807U 99025CGV 25357.12347672  .00003718  00000+0  86618-3 0  9998", "line2": "2 31807  99.0777 128.9097 0105670 131.5185 229.5134 14.52113828654566"}}, "geometry": {"type": "Point", "coordinates": [-60.29653990849259, -48.98697670411066]}}, {"type": "Feature", "properties": {"norad_id": 31808, "name": "FENGYUN 1C DEB", "group": "fengyun-1c-debris", "lat": 28.59448762850551, "lon": 11.675886787192768, "alt_km": 682.487035172474, "timestamp": "2025-12-24T09:46:31.288305+00:00", "meta": {"OBJECT_NAME": "FENGYUN 1C DEB", "OBJECT_ID": "1999-025CGW", "EPOCH": "2025-12-23T18:15:42.727680", "MEAN_MOTION": 14.57649979, "ECCENTRICITY": 0.00360443, "INCLINATION": 99.2023, "RA_OF_ASC_NODE": 185.8922, "ARG_OF_PERICENTER": 104.042, "MEAN_ANOMALY": 256.4786, "EPHEMERIS_TYPE": 0, "CLASSIFICATION_TYPE": "U", "NORAD_CAT_ID": 31808, "ELEMENT_SET_NO": 999, "REV_AT_EPOCH": 57763, "BSTAR": 0.0044762957, "MEAN_MOTION_DOT": 0.00020596, "MEAN_MOTION_DDOT": 0}, "tle": {"line1": "1 31808U 99025CGW 25357.76091120  .00020596  00000+0  44763-2 0  9990", "line2": "2 31808  99.2023 185.8922 0036044 104.0420 256.4786 14.57649979577637"}}, "geometry": {"type": "Point", "coordinates": [11.675886787192768, 28.59448762850551]}}, {"type": "Feature", "properties": {"norad_id": 31810, "name": "FENGYUN 1C DEB", "group": "fengyun-1c-debris", "lat": -39.36675396220931, "lon": -173.34356951984327, "alt_km": 807.072564456601, "timestamp": "2025-12-24T09:46:31.288318+00:00", "meta": {"OBJECT_NAME": "FENGYUN 1C DEB", "OBJECT_ID": "1999-025CGY", "EPOCH": "2025-12-17T20:39:34.005600", "MEAN_MOTION": 14.45854827, "ECCENTRICITY": 0.0214524, "INCLINATION": 98.269, "RA_OF_ASC_NODE": 7.1218, "ARG_OF_PERICENTER": 124.8314, "MEAN_ANOMALY": 237.3263, "EPHEMERIS_TYPE": 0, "CLASSIFICATION_TYPE": "U", "NORAD_CAT_ID": 31810, "ELEMENT_SET_NO": 999, "REV_AT_EPOCH": 64488, "BSTAR": 0.00038073485, "MEAN_MOTION_DOT": 1.748e-05, "MEAN_MOTION_DDOT": 0}, "tle": {"line1": "1 31810U 99025CGY 25351.86081025  .00001748  00000+0  38073-3 0  9997", "line2": "2 31810  98.2690   7.1218 0214524 124.8314 237.3263 14.45854827644883"}}, "geometry": {"type": "Point", "coordinates": [-173.34356951984327, -39.36675396220931]}}, {"type": "Feature", "properties": {"norad_id": 31813, "name": "FENGYUN 1C DEB", "group": "fengyun-1c-debris", "lat": -52.15503847883087, "lon": 91.65539683079035, "alt_km": 637.447660445283, "timestamp": "2025-12-24T09:46:31.288328+00:00", "meta": {"OBJECT_NAME": "FENGYUN 1C DEB", "OBJECT_ID": "1999-025CHB", "EPOCH": "2025-12-19T04:08:07.148544", "MEAN_MOTION": 14.4980422, "ECCENTRICITY": 0.01359265, "INCLINATION": 99.4267, "RA_OF_ASC_NODE": 73.4576, "ARG_OF_PERICENTER": 314.58, "MEAN_ANOMALY": 44.436, "EPHEMERIS_TYPE": 0, "CLASSIFICATION_TYPE": "U", "NORAD_CAT_ID": 31813, "ELEMENT_SET_NO": 999, "REV_AT_EPOCH": 97349, "BSTAR": 0.0003332184, "MEAN_MOTION_DOT": 1.382e-05, "MEAN_MOTION_DDOT": 0}, "tle": {"line1": "1 31813U 99025CHB 25353.17230496  .00001382  00000+0  33322-3 0  9990", "line2": "2 31813  99.4267  73.4576 0135926 314.5800  44.4360 14.49804220973491"}}, "geometry": {"type": "Point", "coordinates": [91.65539683079035, -52.15503847883087]}}, {"type": "Feature", "properties": {"norad_id": 31814, "name": "FENGYUN 1C DEB", "group": "fengyun-1c-debris", "lat": -43.051544397004555, "lon": -140.8966554142808, "alt_km": 883.3935990264263, "timestamp": "2025-12-24T09:46:31.288339+00:00", "meta": {"OBJECT_NAME": "FENGYUN 1C DEB", "OBJECT_ID": "1999-025CHC", "EPOCH": "2025-12-20T22:05:52.017216", "MEAN_MOTION": 13.66483356, "ECCENTRICITY": 0.0230189, "INCLINATION": 99.5707, "RA_OF_ASC_NODE": 44.7236, "ARG_OF_PERICENTER": 194.5646, "MEAN_ANOMALY": 164.8789, "EPHEMERIS_TYPE": 0, "CLASSIFICATION_TYPE": "U", "NORAD_CAT_ID": 31814, "ELEMENT_SET_NO": 999, "REV_AT_EPOCH": 61911, "BSTAR": 0.00045515, "MEAN_MOTION_DOT": 4.08e-06, "MEAN_MOTION_DDOT": 0}, "tle": {"line1": "1 31814U 99025CHC 25354.92074094  .00000408  00000+0  45515-3 0  9990", "line2": "2 31814  99.5707  44.7236 0230189 194.5646 164.8789 13.66483356619116"}}, "geometry": {"type": "Point", "coordinates": [-140.8966554142808, -43.051544397004555]}}, {"type": "Feature", "properties": {"norad_id": 31815, "name": "FENGYUN 1C DEB", "group": "fengyun-1c-debris", "lat": 78.01333313066546, "lon": -148.9229775343138, "alt_km": 864.6248383018719, "timestamp": "2025-12-24T09:46:31.288349+00:00", "meta": {"OBJECT_NAME": "FENGYUN 1C DEB", "OBJECT_ID": "1999-025CHD", "EPOCH": "2025-12-22T16:26:54.855168", "MEAN_MOTION": 14.10282936, "ECCENTRICITY": 0.00587479, "INCLINATION": 98.769, "RA_OF_ASC_NODE": 342.7627, "ARG_OF_PERICENTER": 354.1539, "MEAN_ANOMALY": 5.8939, "EPHEMERIS_TYPE": 0, "CLASSIFICATION_TYPE": "U", "NORAD_CAT_ID": 31815, "ELEMENT_SET_NO": 999, "REV_AT_EPOCH": 95679, "BSTAR": 8.1796289e-05, "MEAN_MOTION_DOT": 1.04e-06, "MEAN_MOTION_DDOT": 0}, "tle": {"line1": "1 31815U 99025CHD 25356.68535712  .00000104  00000+0  81796-4 0  9990", "line2": "2 31815  98.7690 342.7627 0058747 354.1539   5.8939 14.10282936956797"}}, "geometry": {"type": "Point", "coordinates": [-148.9229775343138, 78.01333313066546]}}, {"type": "Feature", "properties": {"norad_id": 31816, "name": "FENGYUN 1C DEB", "group": "fengyun-1c-debris", "lat": 41.67958675980294, "lon": -59.52809808101884, "alt_km": 825.0551071862583, "timestamp": "2025-12-24T09:46:31.288360+00:00", "meta": {"OBJECT_NAME": "FENGYUN 1C DEB", "OBJECT_ID": "1999-025CHE", "EPOCH": "2025-12-18T19:29:53.743776", "MEAN_MOTION": 13.94197872, "ECCENTRICITY": 0.01209789, "INCLINATION": 98.9843, "RA_OF_ASC_NODE": 106.933, "ARG_OF_PERICENTER": 138.28, "MEAN_ANOMALY": 12.885, "EPHEMERIS_TYPE": 0, "CLASSIFICATION_TYPE": "U", "NORAD_CAT_ID": 31816, "ELEMENT_SET_NO": 999, "REV_AT_EPOCH": 93778, "BSTAR": 0.00051958301, "MEAN_MOTION_DOT": 6.91e-06, "MEAN_MOTION_DDOT": 0}, "tle": {"line1": "1 31816U 99025CHE 25352.81242759  .00000691  00000+0  51958-3 0  9995", "line2": "2 31816  98.9843 106.9330 0120978 138.2800  12.8850 13.94197872937782"}}, "geometry": {"type": "Point", "coordinates": [-59.52809808101884, 41.67958675980294]}}, {"type": "Feature", "properties": {"norad_id": 31817, "name": "FENGYUN 1C DEB", "group": "fengyun-1c-debris", "lat": 51.38182778740656, "lon": -172.90339135575977, "alt_km": 667.617821019493, "timestamp": "2025-12-24T09:46:31.288372+00:00", "meta": {"OBJECT_NAME": "FENGYUN 1C DEB", "OBJECT_ID": "1999-025CHF", "EPOCH": "2025-12-17T05:10:40.756800", "MEAN_MOTION": 14.65734447, "ECCENTRICITY": 0.00627326, "INCLINATION": 98.9191, "RA_OF_ASC_NODE": 347.9563, "ARG_OF_PERICENTER": 62.1287, "MEAN_ANOMALY": 298.6249, "EPHEMERIS_TYPE": 0, "CLASSIFICATION_TYPE": "U", "NORAD_CAT_ID": 31817, "ELEMENT_SET_NO": 999, "REV_AT_EPOCH": 71471, "BSTAR": 0.0010276456, "MEAN_MOTION_DOT": 5.707e-05, "MEAN_MOTION_DDOT": 0}, "tle": {"line1": "1 31817U 99025CHF 25351.21574950  .00005707  00000+0  10276-2 0  9990", "line2": "2 31817  98.9191 347.9563 0062732  62.1287 298.6249 14.65734447714717"}}, "geometry": {"type": "Point", "coordinates": [-172.90339135575977, 51.38182778740656]}}, {"type": "Feature", "properties": {"norad_id": 31819, "name": "FENGYUN 1C DEB", "group": "fengyun-1c-debris", "lat": -0.03405038313170867, "lon": -10.582956990484707, "alt_km": 776.7159939748854, "timestamp": "2025-12-24T09:46:31.288382+00:00", "meta": {"OBJECT_NAME": "FENGYUN 1C DEB", "OBJECT_ID": "1999-025CHH", "EPOCH": "2025-12-23T16:59:06.271008", "MEAN_MOTION": 14.30199058, "ECCENTRICITY": 0.00865225, "INCLINATION": 98.4748, "RA_OF_ASC_NODE": 348.7306, "ARG_OF_PERICENTER": 287.8472, "MEAN_ANOMALY": 71.3288, "EPHEMERIS_TYPE": 0, "CLASSIFICATION_TYPE": "U", "NORAD_CAT_ID": 31819, "ELEMENT_SET_NO": 999, "REV_AT_EPOCH": 96850, "BSTAR": 0.00034975795, "MEAN_MOTION_DOT": 9e-06, "MEAN_MOTION_DDOT": 0}, "tle": {"line1": "1 31819U 99025CHH 25357.70771147  .00000900  00000+0  34976-3 0  9993", "line2": "2 31819  98.4748 348.7306 0086522 287.8472  71.3288 14.30199058968503"}}, "geometry": {"type": "Point", "coordinates": [-10.582956990484707, -0.03405038313170867]}}]}